OBJECT_NAME,OBJECT_ID,EPOCH,MEAN_MOTION,ECCENTRICITY,INCLINATION,RA_OF_ASC_NODE,ARG_OF_PERICENTER,MEAN_ANOMALY,EPHEMERIS_TYPE,CLASSIFICATION_TYPE,NORAD_CAT_ID,ELEMENT_SET_NO,REV_AT_EPOCH,BSTAR,MEAN_MOTION_DOT,MEAN_MOTION_DDOT
GEOSCAN 3 (RS92S3),2025-155T,2026-07-04T04:47:39.609600,15.35988983,.00084213,97.4548,155.2817,115.3782,244.8334,0,U,64893,999,8346,.71936088E-3,.25205E-3,0
INNOSAT 3 (RS92S0),2025-155U,2026-07-04T03:48:06.379488,15.45097082,.00082495,97.4495,157.0753,114.7369,245.4739,0,U,64894,999,8358,.11397377E-2,.54186E-3,0
KNACKSAT-2,1998-067XZ,2026-07-03T19:21:23.190624,15.61443080,.00083167,51.6260,210.7913,287.3397,72.6687,0,U,67683,999,2287,.57863419E-3,.50278E-3,0
