GEOSCAN 3 (RS92S3)      
1 64893U 25155T   26185.19976400  .00025205  00000+0  71936-3 0  9998
2 64893  97.4548 155.2817 0008421 115.3782 244.8334 15.35988983 83468
INNOSAT 3 (RS92S0)      
1 64894U 25155U   26185.15840717  .00054186  00000+0  11397-2 0  9990
2 64894  97.4495 157.0753 0008249 114.7369 245.4739 15.45097082 83582
KNACKSAT-2              
1 67683U 98067XZ  26184.80651841  .00050278  00000+0  57863-3 0  9997
2 67683  51.6260 210.7913 0008316 287.3397  72.6687 15.61443080 22879
